STARLINK-30509          
1 57977U 23151P   26189.52437433  .00002515  00000+0  10085-3 0  9993
2 57977  43.0038  28.2620 0000689 295.6053  64.4728 15.27590948154076
STARLINK-30511          
1 57978U 23151Q   26189.53080287  .00006396  00000+0  24161-3 0  9997
2 57978  43.0042  28.3109 0000743 293.6973  66.3801 15.27599880154072
STARLINK-30508          
1 57979U 23151R   26189.53466208  .00011256  00000+0  41760-3 0  9994
2 57979  43.0018  28.3346 0001849 277.5341  82.5300 15.27606227154075
STARLINK-30510          
1 57981U 23151T   26189.25077523  .00004114  00000+0  15895-3 0  9999
2 57981  43.0073  33.0461 0001970 271.3232  88.7394 15.27577004153997
STARLINK-30507          
1 57982U 23151U   26188.99308567 -.00013130  00000+0 -46902-3 0  9998
2 57982  43.0008  34.5594 0001398 275.5569  84.5123 15.27540954153945
STARLINK-30515          
1 57983U 23151V   26189.25848417  .00003688  00000+0  14342-3 0  9990
2 57983  42.9992  33.1071 0001471 273.4072  86.6611 15.27590265153988
STARLINK-30516          
1 57984U 23151W   26189.00081334  .00001462  00000+0  62705-4 0  9996
2 57984  43.0097  34.6248 0002642 342.0053  18.0705 15.27563439153955
STARLINK-30519          
1 57985U 23151X   26189.27825536  .00005263  00000+0  20057-3 0  9992
2 57985  43.0039  29.8503 0000847 270.2822  89.7933 15.27591467153975
YAOGAN-39 03B           
1 57988U 23152C   26189.39877350  .00002848  00000+0  14369-3 0  9995
2 57988  34.9883 164.0612 0025784  54.1437 306.1665 15.16438170153411
YAOGAN-39 03C           
1 57990U 23152E   26189.39491688  .00002820  00000+0  14296-3 0  9993
2 57990  34.9886 164.0060 0017864 324.7133  35.2396 15.16416129153380
STARLINK-30537          
1 57991U 23153A   26189.17254004  .00005109  00000+0  19509-3 0  9995
2 57991  43.0043 106.5560 0001889 292.1047  67.9604 15.27574828153225
STARLINK-30534          
1 57992U 23153B   26189.48529008  .00006031  00000+0  22822-3 0  9996
2 57992  43.0046 104.5998 0000939 239.8563 120.2195 15.27620951153270
STARLINK-30536          
1 57993U 23153C   26189.11099255  .00002188  00000+0  88976-4 0  9995
2 57993  43.0017 106.9485 0001081 261.5467  98.5262 15.27588676153314
STARLINK-30538          
1 57994U 23153D   26189.11870638  .00006006  00000+0  22760-3 0  9999
2 57994  43.0020 106.9958 0001258 258.5661 101.5049 15.27576776153217
STARLINK-30517          
1 57995U 23153E   26189.45977100  .00001341  00000+0  58225-4 0  9992
2 57995  43.0013 105.2591 0001326 270.8392  89.2308 15.27584362153365
STARLINK-30523          
1 57997U 23153G   26188.98408022 -.00000025  00000+0  86208-5 0  9995
2 57997  43.0024 107.7146 0001500 254.9786 105.0900 15.27574387153299
STARLINK-30531          
1 57998U 23153H   26188.97381891  .00001121  00000+0  50261-4 0  9995
2 57998  43.0007 107.6417 0000708 321.9838  38.0963 15.27556486153297
STARLINK-30552          
1 57999U 23153J   26189.47135251  .00000698  00000+0  34890-4 0  9997
2 57999  43.0040 105.3511 0001780 270.3683  89.6964 15.27573181153363
STARLINK-30545          
1 58000U 23153K   26189.47504956  .00001137  00000+0  50847-4 0  9992
2 58000  43.0010 104.5225 0000626 271.9867  88.0913 15.27576834153372
STARLINK-30535          
1 58001U 23153L   26189.47889603  .00001780  00000+0  74186-4 0  9994
2 58001  43.0026 104.5499 0000975 249.4503 110.6244 15.27587610153370
STARLINK-30540          
1 58002U 23153M   26189.48917681  .00004368  00000+0  16811-3 0  9999
2 58002  43.0055 104.6091 0002725 257.4330 102.6217 15.27590770153275
STARLINK-30539          
1 58004U 23153P   26189.48661085  .00003089  00000+0  12171-3 0  9999
2 58004  43.0082 104.6052 0001775 257.4816 102.5837 15.27587979153361
STARLINK-30530          
1 58005U 23153Q   26189.49432613 -.00001465  00000+0 -43741-4 0  9990
2 58005  43.0046 104.6570 0001384 263.9104  96.1591 15.27565814153375
STARLINK-30526          
1 58006U 23153R   26189.38348063  .00012894  00000+0  42269-3 0  9993
2 58006  43.0020  78.6614 0005942 221.7536 138.2864 15.31528462153668
STARLINK-30527          
1 58007U 23153S   26189.41912856  .00001724  00000+0  72131-4 0  9997
2 58007  42.9959 236.5622 0000450 246.7265 113.3540 15.27584855155926
STARLINK-30522          
1 58008U 23153T   26189.46362758  .00001323  00000+0  57573-4 0  9991
2 58008  43.0022 105.2782 0001361 268.8223  91.2472 15.27587522153368
STARLINK-30486          
1 58009U 23153U   26189.49046610  .00001191  00000+0  52794-4 0  9994
2 58009  43.0055 104.6253 0001423 264.0800  95.9890 15.27580448153274
STARLINK-30520          
1 58010U 23153V   26189.10843040  .00001189  00000+0  52735-4 0  9998
2 58010  43.0026 106.9050 0001451 256.0489 104.0201 15.27575363153211
STARLINK-30497          
1 58011U 23153W   26189.48148293  .00013960  00000+0  51602-3 0  9999
2 58011  43.0087 104.5565 0002127 264.5073  95.5536 15.27569823153374
