OBJECT_NAME,OBJECT_ID,EPOCH,MEAN_MOTION,ECCENTRICITY,INCLINATION,RA_OF_ASC_NODE,ARG_OF_PERICENTER,MEAN_ANOMALY,EPHEMERIS_TYPE,CLASSIFICATION_TYPE,NORAD_CAT_ID,ELEMENT_SET_NO,REV_AT_EPOCH,BSTAR,MEAN_MOTION_DOT,MEAN_MOTION_DDOT
STARLINK-30509,2023-151P,2026-07-08T12:35:05.942112,15.27590948,.00006899,43.0038,28.2620,295.6053,64.4728,0,U,57977,999,15407,.10085427E-3,.2515E-4,0
STARLINK-30511,2023-151Q,2026-07-08T12:44:21.367968,15.27599880,.00007437,43.0042,28.3109,293.6973,66.3801,0,U,57978,999,15407,.24161246E-3,.6396E-4,0
STARLINK-30508,2023-151R,2026-07-08T12:49:54.803712,15.27606227,.00018496,43.0018,28.3346,277.5341,82.5300,0,U,57979,999,15407,.41760005E-3,.11256E-3,0
STARLINK-30510,2023-151T,2026-07-08T06:01:06.979872,15.27577004,.00019708,43.0073,33.0461,271.3232,88.7394,0,U,57981,999,15399,.15894797E-3,.4114E-4,0
STARLINK-30507,2023-151U,2026-07-07T23:50:02.601888,15.27540954,.00013984,43.0008,34.5594,275.5569,84.5123,0,U,57982,999,15394,-.46902061E-3,-.1313E-3,0
STARLINK-30515,2023-151V,2026-07-08T06:12:13.032288,15.27590265,.00014716,42.9992,33.1071,273.4072,86.6611,0,U,57983,999,15398,.14341779E-3,.3688E-4,0
STARLINK-30516,2023-151W,2026-07-08T00:01:10.272576,15.27563439,.00026422,43.0097,34.6248,342.0053,18.0705,0,U,57984,999,15395,.62704871E-4,.1462E-4,0
STARLINK-30519,2023-151X,2026-07-08T06:40:41.263104,15.27591467,.0000847,43.0039,29.8503,270.2822,89.7933,0,U,57985,999,15397,.20057034E-3,.5263E-4,0
YAOGAN-39 03B,2023-152C,2026-07-08T09:34:14.030400,15.16438170,.00257845,34.9883,164.0612,54.1437,306.1665,0,U,57988,999,15341,.14368848E-3,.2848E-4,0
YAOGAN-39 03C,2023-152E,2026-07-08T09:28:40.818432,15.16416129,.00178644,34.9886,164.0060,324.7133,35.2396,0,U,57990,999,15338,.14296113E-3,.282E-4,0
STARLINK-30537,2023-153A,2026-07-08T04:08:27.459456,15.27574828,.00018891,43.0043,106.5560,292.1047,67.9604,0,U,57991,999,15322,.19509492E-3,.5109E-4,0
STARLINK-30534,2023-153B,2026-07-08T11:38:49.062912,15.27620951,.0000939,43.0046,104.5998,239.8563,120.2195,0,U,57992,999,15327,.22821765E-3,.6031E-4,0
STARLINK-30536,2023-153C,2026-07-08T02:39:49.756320,15.27588676,.00010818,43.0017,106.9485,261.5467,98.5262,0,U,57993,999,15331,.88976453E-4,.2188E-4,0
STARLINK-30538,2023-153D,2026-07-08T02:50:56.231232,15.27576776,.00012588,43.0020,106.9958,258.5661,101.5049,0,U,57994,999,15321,.22760439E-3,.6006E-4,0
STARLINK-30517,2023-153E,2026-07-08T11:02:04.214400,15.27584362,.00013263,43.0013,105.2591,270.8392,89.2308,0,U,57995,999,15336,.58224668E-4,.1341E-4,0
STARLINK-30523,2023-153G,2026-07-07T23:37:04.531008,15.27574387,.00015001,43.0024,107.7146,254.9786,105.0900,0,U,57997,999,15329,.8620777E-5,-.25E-6,0
STARLINK-30531,2023-153H,2026-07-07T23:22:17.953824,15.27556486,.00007085,43.0007,107.6417,321.9838,38.0963,0,U,57998,999,15329,.50260956E-4,.1121E-4,0
STARLINK-30552,2023-153J,2026-07-08T11:18:44.856864,15.27573181,.00017809,43.0040,105.3511,270.3683,89.6964,0,U,57999,999,15336,.34890458E-4,.698E-5,0
STARLINK-30545,2023-153K,2026-07-08T11:24:04.281984,15.27576834,.00006263,43.0010,104.5225,271.9867,88.0913,0,U,58000,999,15337,.50847383E-4,.1137E-4,0
STARLINK-30535,2023-153L,2026-07-08T11:29:36.616992,15.27587610,.00009757,43.0026,104.5499,249.4503,110.6244,0,U,58001,999,15337,.74186473E-4,.178E-4,0
STARLINK-30540,2023-153M,2026-07-08T11:44:24.876384,15.27590770,.00027257,43.0055,104.6091,257.4330,102.6217,0,U,58002,999,15327,.16810855E-3,.4368E-4,0
STARLINK-30539,2023-153P,2026-07-08T11:40:43.177440,15.27587979,.00017757,43.0082,104.6052,257.4816,102.5837,0,U,58004,999,15336,.12170621E-3,.3089E-4,0
STARLINK-30530,2023-153Q,2026-07-08T11:51:49.777632,15.27565814,.00013842,43.0046,104.6570,263.9104,96.1591,0,U,58005,999,15337,-.43741328E-4,-.1465E-4,0
STARLINK-30526,2023-153R,2026-07-08T09:12:12.726432,15.31528462,.00059428,43.0020,78.6614,221.7536,138.2864,0,U,58006,999,15366,.42268777E-3,.12894E-3,0
STARLINK-30527,2023-153S,2026-07-08T10:03:32.707584,15.27584855,.00004506,42.9959,236.5622,246.7265,113.3540,0,U,58007,999,15592,.72131369E-4,.1724E-4,0
STARLINK-30522,2023-153T,2026-07-08T11:07:37.422912,15.27587522,.00013618,43.0022,105.2782,268.8223,91.2472,0,U,58008,999,15336,.57573303E-4,.1323E-4,0
STARLINK-30486,2023-153U,2026-07-08T11:46:16.271040,15.27580448,.00014231,43.0055,104.6253,264.0800,95.9890,0,U,58009,999,15327,.52794349E-4,.1191E-4,0
STARLINK-30520,2023-153V,2026-07-08T02:36:08.386560,15.27575363,.00014513,43.0026,106.9050,256.0489,104.0201,0,U,58010,999,15321,.52735181E-4,.1189E-4,0
STARLINK-30497,2023-153W,2026-07-08T11:33:20.125152,15.27569823,.00021277,43.0087,104.5565,264.5073,95.5536,0,U,58011,999,15337,.51602026E-3,.1396E-3,0
